KUIPER-00061            
1 64521U 25134X   25180.58335648 -.00015321  00000+0 -43251-3 0  9992
2 64521  51.8751 301.4187 0006456 124.8027 303.3069 15.35099145  1306
KUIPER-00062            
1 64522U 25134Y   25180.58335648 -.00015511  00000+0 -43175-3 0  9999
2 64522  51.8757 301.4005 0005196 118.3118 318.3422 15.35554879  1489
KUIPER-00063            
1 64523U 25134Z   25180.58335648 -.00014918  00000+0 -41009-3 0  9994
2 64523  51.8762 301.3804 0003338 107.0484 339.1092 15.35919621  1304
KUIPER-00064            
1 64524U 25134AA  25180.58335648 -.00011107  00000+0 -29704-3 0  9990
2 64524  51.8781 301.3487 0002194  84.4842  13.8076 15.36472520  2030
KUIPER-00065            
1 64525U 25134AB  25180.58335648 -.00015936  00000+0 -46012-3 0  9996
2 64525  51.8715 301.4561 0009426 134.9992 276.0990 15.34402723  1970
KUIPER-00066            
1 64526U 25134AC  25180.58335648 -.00014282  00000+0 -38816-3 0  9993
2 64526  51.8772 301.3641 0002171  94.0611 358.9718 15.36235861  1300
2025-131C               
1 64527U 25131C   25180.82888374 -.00000350  00000+0  00000+0 0  9997
2 64527   1.0638 280.4951 3677248 174.0509 226.8257  1.00270235    97
AXIOM-4 (AX-4)          
1 64593U 25136A   25180.51146120  .00004776  00000+0  90679-4 0  9998
2 64593  51.6346 245.9949 0002294 308.4973  51.5810 15.50294614516769
2025-138A               
1 64621U 25138A   25177.83856524 -.00000065  00000+0  00000+0 0  9991
2 64621  97.4382 182.4568 0013193 299.2977 148.9700 15.14287535    11
2025-138B               
1 64622U 25138B   25177.83856541 -.00000065  00000+0  00000+0 0  9991
2 64622  97.4383 182.4573 0012698 292.4088 155.9330 15.14569219    15
2025-138C               
1 64623U 25138C   25177.83798743 -.00000066  00000+0  00000+0 0  9992
2 64623  97.4385 182.4570 0014166 294.7990 150.4324 15.14691374    15
2025-138D               
1 64624U 25138D   25177.83889047 -.00000066  00000+0  00000+0 0  9991
2 64624  97.4382 182.4574 0014861 285.3122 164.9712 15.15191491    08
2025-138E               
1 64625U 25138E   25177.89257553 -.00000650  20517-5  00000+0 0  9999
2 64625  97.4386 183.0098 0271941   9.1919  32.5550 15.48760178    23
2025-138F               
1 64626U 25138F   25177.89893358 -.00000664  21029-5  00000+0 0  9993
2 64626  97.3361 182.5749 0262050 212.9420 236.1330 15.45522647    27
2025-140A               
1 64691U 25140A   25180.61773009  .00000757  00000+0  12617-3 0  9995
2 64691  95.9839  28.7237 0011834 308.1691  51.8455 14.71634605   190
ELECTRON KICK STAGE R/B 
1 64692U 25140B   25180.61739195  .00000821  00000+0  13533-3 0  9994
2 64692  95.9843  28.7241 0012781 300.7605  59.2349 14.72019096   192
ELECTRON R/B            
1 64693U 25140C   25180.61574887  .01200726  14639-5  11006-2 0  9998
2 64693  95.9947  28.8385 0337333 219.9284 137.6723 15.53084521   209
GOSAT-GW (IBUKI GW)     
1 64694U 25141A   25179.75055737 -.00000048  00000+0  00000+0 0  9996
2 64694  98.0550 118.4627 0001554  94.5777 344.3320 14.68092379    09
H-2A R/B                
1 64695U 25141B   25179.75017807 -.00000050  00000+0  00000+0 0  9996
2 64695  98.0377 118.4481 0013152 289.3460 147.6828 14.71161777    05
